STARLINK-32244          
1 60411U 24141P   26068.72861301  .00000166  00000+0  17725-4 0  9992
2 60411  53.1603 242.6167 0001275  83.1651 276.9495 15.30184555 89588
KUIPER-00208            
1 67775U 26030M   26068.67231509  .00043852  00000+0  13883-2 0  9994
2 67775  51.8846 219.6993 0015525  57.3146 302.9333 15.32208734  5080
